id,spkid,full_name,pdes,name,prefix,neo,pha,H,diameter,albedo,diameter_sigma,orbit_id,epoch,epoch_mjd,epoch_cal,equinox,e,a,q,i,om,w,ma,ad,n,tp,tp_cal,per,per_y,moid,moid_ld,sigma_e,sigma_a,sigma_q,sigma_i,sigma_om,sigma_w,sigma_ma,sigma_ad,sigma_n,sigma_tp,sigma_per,class,rms
a0000666,2000666,"   666 Desdemona (1908 DM)",666,Desdemona,,N,N,10.7,32.741,0.095,0.368,"JPL 35",2459000.5,59000,20200531.0000000,J2000,.2376867122034235,2.593245467665785,1.976865478519875,7.583643675108945,215.4026959138516,173.955108319506,233.45041293696,3.209625456811695,.2360144712528211,2459536.694185006049,20211118.1941850,1525.330197292709,4.17612648129421,.982426,382.33072642,4.2442E-8,6.9383E-9,1.0829E-7,4.5343E-6,2.6256E-5,2.7138E-5,8.4281E-6,8.5874E-9,9.4719E-10,3.684E-5,6.1216E-6,MBA,.44206
a0000667,2000667,"   667 Denise (1908 DN)",667,Denise,,N,N,9.4,88.630,0.028,0.598,"JPL 37",2459000.5,59000,20200531.0000000,J2000,.1902860789731598,3.182459158541629,2.576881483770521,25.40214549973083,153.2434026825219,305.6513741268004,88.90847145191708,3.788036833312737,.1736040351740891,2458488.366331201575,20190104.8663312,2073.684517983664,5.67743878982523,1.66424,647.6722808,3.5961E-8,1.4754E-8,1.1384E-7,4.616E-6,9.7006E-6,1.5171E-5,1.2191E-5,1.7561E-8,1.2072E-9,6.9481E-5,1.442E-5,MBA,.39943
a0000668,2000668,"   668 Dora (1908 DO)",668,Dora,,N,N,12.0,21.517,0.043,0.187,"JPL 33",2459000.5,59000,20200531.0000000,J2000,.2358732595085269,2.794429816862666,2.135298547491453,6.84124831023201,214.4403970965056,113.0118654433435,318.5940934554375,3.453561086233878,.2109911620081219,2459196.744743857890,20201213.2447439,1706.232605070643,4.67141028082312,1.13557,441.9297769,3.2677E-8,1.0666E-8,9.1482E-8,3.978E-6,2.9376E-5,3.0378E-5,8.7791E-6,1.3182E-8,1.208E-9,4.2247E-5,9.769E-6,MBA,.42992
a0000669,2000669,"   669 Kypria (1908 DQ)",669,Kypria,,N,N,10.1,29.227,0.112,0.405,"JPL 40",2459000.5,59000,20200531.0000000,J2000,.07603000889065607,3.013448774516715,2.784336237398673,10.79061074746154,170.7305301956058,115.8846070264191,180.617766363477,3.242561311634757,.1884119107523083,2459952.574807374275,20230108.0748074,1910.707229508788,5.23123129228963,1.78951,696.4236067,3.4066E-8,1.2967E-8,1.0103E-7,4.4863E-6,2.0746E-5,3.6726E-5,3.0719E-5,1.3953E-8,1.2161E-9,.00016373,1.2333E-5,MBA,.41765
a0000670,2000670,"   670 Ottegebe (1908 DR)",670,Ottegebe,,N,N,9.4,35.886,0.165,0.499,"JPL 40",2459000.5,59000,20200531.0000000,J2000,.1935419542335575,2.803599529479361,2.260985397655643,7.533247637575013,174.6498317020702,194.89964619566,268.2842338630762,3.346213661303078,.2099568779773256,2459437.331443773081,20210810.8314438,1714.637803096302,4.69442245885367,1.26108,490.7745036,3.6419E-8,9.45E-9,1.0362E-7,4.2188E-6,2.7815E-5,2.9374E-5,1.0941E-5,1.1279E-8,1.0615E-9,5.3256E-5,8.6692E-6,MBA,.43674
a0000671,2000671,"   671 Carnegia (1908 DV)",671,Carnegia,,N,N,10.2,60.604,0.028,0.842,"JPL 52",2459000.5,59000,20200531.0000000,J2000,.06656388088529372,3.09160139966981,2.885812412357381,8.028624809010362,.5000408609511534,90.43160994493627,103.7286920571479,3.297390386982238,.1813129529254645,2458428.402472584022,20181105.9024726,1985.517273815465,5.43605003098005,1.91697,746.0272149,3.1699E-8,1.3158E-8,9.6949E-8,4.6518E-6,2.5372E-5,4.4153E-5,3.5749E-5,1.4034E-8,1.1575E-9,.00019642,1.2676E-5,MBA,.43101
a0000672,2000672,"   672 Astarte (1908 DY)",672,Astarte,,N,N,11.5,35.584,0.032,0.276,"JPL 35",2459000.5,59000,20200531.0000000,J2000,.1342671164611542,2.556536182458892,2.21327744111153,11.11437770038029,343.8815395058307,308.9306596666555,176.7379479868997,2.899794923806255,.2411160711437311,2458267.500548123792,20180529.0005481,1493.05684308949,4.08776685308553,1.21649,473.4214133,3.69E-8,8.5289E-9,9.5129E-8,4.8298E-6,1.7075E-5,2.3931E-5,1.6573E-5,9.674E-9,1.2066E-9,6.8316E-5,7.4715E-6,MBA,.37612
a0000673,2000673,"   673 Edda (1908 EA)",673,Edda,,N,N,10.0,37.622,0.092,0.409,"JPL 35",2459000.5,59000,20200531.0000000,J2000,.01055323384154588,2.814191514110302,2.784492692987002,2.87737187343423,226.7091953824651,234.5516206089495,133.004308642104,2.843890335233602,.2087726482411734,2458363.422730718739,20180901.9227307,1724.363814095654,4.7210508257239,1.8025,701.478925,3.1782E-8,9.235E-9,8.8308E-8,4.0251E-6,7.005E-5,.00020876,.00019599,9.3324E-9,1.0277E-9,.00093877,8.4879E-6,MBA,.43467
a0000674,2000674,"   674 Rachele (1908 EP)",674,Rachele,,N,N,7.6,96.171,0.206,2.708,"JPL 36",2459000.5,59000,20200531.0000000,J2000,.1952648757412135,2.921607663782708,2.351120306349601,13.50948777495301,58.13258983140469,41.77979814347909,64.01395558216731,3.492095021215816,.1973654964201638,2458676.157818903206,20190711.6578189,1824.027028683929,4.99391383623252,1.38565,539.2534105,4.3348E-8,1.1266E-8,1.2718E-7,5.8393E-6,2.291E-5,2.774E-5,1.6645E-5,1.3466E-8,1.1416E-9,8.3701E-5,1.0551E-5,MBA,.50327
a0000675,2000675,"   675 Ludmilla (1908 DU)",675,Ludmilla,,N,N,8.1,76,,,"JPL 46",2459000.5,59000,20200531.0000000,J2000,.2038738867034781,2.769385666790611,2.204780247121106,9.804322110686384,263.0271429868422,152.7091493287643,38.02333496799895,3.333991086460117,.2138596805089796,2458822.704284241403,20191205.2042842,1683.346758693414,4.60875224830503,1.22215,475.6241155,3.9143E-8,9.0979E-9,1.0897E-7,4.6592E-6,2.4626E-5,2.676E-5,1.0738E-5,1.0953E-8,1.0538E-9,4.9958E-5,8.2951E-6,MBA,.43044
a0000676,2000676,"   676 Melitta (1909 FN)",676,Melitta,,N,N,9.4,78.369,0.049,0.436,"JPL 42",2459000.5,59000,20200531.0000000,J2000,.1217748953237391,3.063744004003086,2.690656898616877,12.83882195383146,150.2383822989707,184.6856139663506,106.7349190131546,3.436831109389296,.1837914746897308,2458419.760772604714,20181028.2607726,1958.7415608245,5.36274212409172,1.68079,654.1130443,3.3751E-8,1.2564E-8,1.0167E-7,3.8149E-6,1.7514E-5,2.3927E-5,1.6732E-5,1.4094E-8,1.1306E-9,9.0928E-5,1.2049E-5,MBA,.4157
a0000677,2000677,"   677 Aaltje (1909 FR)",677,Aaltje,,N,N,9.6,32.403,0.313,0.442,"JPL 36",2459000.5,59000,20200531.0000000,J2000,.05013509844126934,2.955518544890559,2.807343331697473,8.486983633663966,272.7129827978143,275.5960827449965,261.9011907243348,3.103693758083645,.1939784750273558,2459506.220076734446,20211018.7200767,1855.876018971852,5.08111161936168,1.82346,709.6359282,3.6056E-8,1.244E-8,1.0749E-7,3.9442E-6,2.6926E-5,4.9134E-5,4.2574E-5,1.3064E-8,1.2247E-9,.00022024,1.1717E-5,MBA,.41414
a0000678,2000678,"   678 Fredegundis (1909 FS)",678,Fredegundis,,N,N,9.2,39.585,0.344,0.581,"JPL 101",2459000.5,59000,20200531.0000000,J2000,.2194441174664389,2.573117106840736,2.008461694192274,6.094397038799735,281.1163955457174,121.2340680425075,47.06602643600924,3.137772519489198,.2387892358250527,2458803.397202324095,20191115.8972023,1507.605645439359,4.12759930305095,1.02545,399.0743765,3.651E-8,7.6219E-9,9.4197E-8,4.6341E-6,3.6086E-5,3.7606E-5,9.554E-6,9.2945E-9,1.061E-9,3.997E-5,6.6986E-6,MBA,.46015
a0000679,2000679,"   679 Pax (1909 FY)",679,Pax,,N,N,9.1,63.909,0.110,0.212,"JPL 38",2459000.5,59000,20200531.0000000,J2000,.3090877282412279,2.586993675689123,1.787385677495948,24.40703857764901,112.11689420076,266.9736033932306,4.827132284432288,3.386601673882297,.2368705254094123,2458980.121220174655,20200510.6212202,1519.817627700905,4.16103388829817,.963711,375.04740987,3.7146E-8,8.9765E-9,9.6931E-8,4.5934E-6,1.0733E-5,1.3101E-5,1.1508E-5,1.1751E-8,1.2329E-9,4.8503E-5,7.9103E-6,MBA,.40279
a0000680,2000680,"   680 Genoveva (1909 GW)",680,Genoveva,,N,N,9.5,83.92,0.0474,1.4,"JPL 42",2459000.5,59000,20200531.0000000,J2000,.2945451511077922,3.143974288872602,2.217931906877608,17.49770903362965,38.01078118213456,245.8507782606882,270.7027976781148,4.070016670867597,.176801357501618,2459505.570795743567,20211018.0707957,2036.183460846479,5.5747664910239,1.26669,492.9577473,3.8301E-8,1.3926E-8,1.2234E-7,4.1722E-6,1.4499E-5,1.584E-5,1.0408E-5,1.8028E-8,1.1747E-9,6.0951E-5,1.3528E-5,MBA,.4376
a0000681,2000681,"   681 Gorgo (1909 GZ)",681,Gorgo,,N,N,10.7,20.390,0.240,2.437,"JPL 34",2459000.5,59000,20200531.0000000,J2000,.1017184796480336,3.106002194615758,2.790064373595988,12.57226643481453,177.8442269410297,115.8192185786449,39.14836355421613,3.421940015635529,.1800534455324073,2458783.073649515805,20191026.5736495,1999.406337021218,5.47407621361045,1.80323,701.7630191,3.5134E-8,1.4669E-8,1.1121E-7,4.4654E-6,1.922E-5,2.956E-5,2.2854E-5,1.6162E-8,1.2756E-9,.00012661,1.4165E-5,MBA,.46944
a0000682,2000682,"   682 Hagar (1909 HA)",682,Hagar,,N,N,12.2,,,,"JPL 39",2459000.5,59000,20200531.0000000,J2000,.1721964019056559,2.653559760898113,2.196626317829825,11.50657384265696,190.7825279319883,105.08135128065,225.5525051890373,3.110493203966401,.2280136068950687,2459590.146805038416,20220110.6468050,1578.85314346907,4.32266432161279,1.21519,472.9154923,3.4584E-8,9.1249E-9,9.1682E-8,3.552E-6,1.9477E-5,2.2188E-5,1.3539E-5,1.0696E-8,1.1761E-9,6.1015E-5,8.1439E-6,MBA,.44212
a0000683,2000683,"   683 Lanzia (1909 HC)",683,Lanzia,,N,N,8.7,83.04,0.053,22.2,"JPL 75",2459000.5,59000,20200531.0000000,J2000,.05834284198189497,3.112721564828343,2.931116542437926,18.53140623012636,259.6605302092088,281.6205447156213,171.946969360673,3.29432658721876,.179470743587758,2458042.422009552526,20171015.9220096,2005.897968679036,5.49184933245458,1.99004,774.4638668,3.5639E-8,1.3752E-8,1.1266E-7,4.8232E-6,1.2842E-5,4.3774E-5,4.1671E-5,1.4555E-8,1.1894E-9,.00023162,1.3293E-5,MBA,.43699
a0000684,2000684,"   684 Hildburg (1909 HD)",684,Hildburg,,N,N,10.8,19.040,0.238,0.188,"JPL 42",2459000.5,59000,20200531.0000000,J2000,.0351820662430585,2.431681765583273,2.346130176624485,5.522416419249207,336.3587869740657,290.4443053215098,122.8022364114009,2.517233354542062,.2599225545502504,2458528.042976699778,20190213.5429767,1385.027938890936,3.7919998326925,1.33694,520.2969398,3.3478E-8,7.1404E-9,8.1307E-8,4.5319E-6,3.7892E-5,7.628E-5,6.5972E-5,7.3916E-9,1.1449E-9,.0002538,6.1005E-6,MBA,.42891
